[{"spaceTrack":{"CCSDS_OMM_VERS":"2.0","COMMENT":"GENERATED VIA SPACE-TRACK.ORG API","CREATION_DATE":"2021-07-02T17:51:43","ORIGINATOR":"18 SPCS","OBJECT_NAME":"STARLINK-1998","OBJECT_ID":"2021-009AX","CENTER_NAME":"EARTH","REF_FRAME":"TEME","TIME_SYSTEM":"UTC","MEAN_ELEMENT_THEORY":"SGP4","EPOCH":"2021-07-02T07:51:34.208928","MEAN_MOTION":15.06400273,"ECCENTRICITY":0.0000623,"INCLINATION":53.0545,"RA_OF_ASC_NODE":164.2262,"ARG_OF_PERICENTER":346.997,"MEAN_ANOMALY":13.1003,"EPHEMERIS_TYPE":0,"CLASSIFICATION_TYPE":"U","NORAD_CAT_ID":47593,"ELEMENT_SET_NO":999,"REV_AT_EPOCH":2257,"BSTAR":-0.000005142,"MEAN_MOTION_DOT":-0.00000358,"MEAN_MOTION_DDOT":0,"SEMIMAJOR_AXIS":6925.348,"PERIOD":95.592,"APOAPSIS":547.644,"PERIAPSIS":546.781,"OBJECT_TYPE":"PAYLOAD","RCS_SIZE":"LARGE","COUNTRY_CODE":"US","LAUNCH_DATE":"2021-02-04","SITE":"AFETR","DECAY_DATE":null,"DECAYED":0,"FILE":3068555,"GP_ID":180167631,"TLE_LINE0":"0 STARLINK-1998","TLE_LINE1":"1 47593U 21009AX  21183.32747927 -.00000358  00000-0 -51420-5 0  9991","TLE_LINE2":"2 47593  53.0545 164.2262 0000623 346.9970  13.1003 15.06400273 22576"},"version":"v1.0","launch":"5ff6554f9257f579ee3a6c5f","longitude":-8.819013836092767,"latitude":53.20514386223578,"height_km":553.8583848299058,"velocity_kms":7.591125987150565,"id":"6026ca85056ffc00066f5963"},{"spaceTrack":{"CCSDS_OMM_VERS":"2.0","COMMENT":"GENERATED VIA SPACE-TRACK.ORG API","CREATION_DATE":"2021-07-02T17:51:43","ORIGINATOR":"18 SPCS","OBJECT_NAME":"STARLINK-2003","OBJECT_ID":"2021-009BC","CENTER_NAME":"EARTH","REF_FRAME":"TEME","TIME_SYSTEM":"UTC","MEAN_ELEMENT_THEORY":"SGP4","EPOCH":"2021-07-02T14:00:01.999872","MEAN_MOTION":15.06423767,"ECCENTRICITY":0.0001756,"INCLINATION":53.1139,"RA_OF_ASC_NODE":132.7126,"ARG_OF_PERICENTER":82.0703,"MEAN_ANOMALY":91.2706,"EPHEMERIS_TYPE":0,"CLASSIFICATION_TYPE":"U","NORAD_CAT_ID":47598,"ELEMENT_SET_NO":999,"REV_AT_EPOCH":367,"BSTAR":-0.0014215,"MEAN_MOTION_DOT":-0.00021405,"MEAN_MOTION_DDOT":0,"SEMIMAJOR_AXIS":6925.276,"PERIOD":95.591,"APOAPSIS":548.357,"PERIAPSIS":545.925,"OBJECT_TYPE":"PAYLOAD","RCS_SIZE":"LARGE","COUNTRY_CODE":"US","LAUNCH_DATE":"2021-02-04","SITE":"AFETR","DECAY_DATE":null,"DECAYED":0,"FILE":3068555,"GP_ID":180167382,"TLE_LINE0":"0 STARLINK-2003","TLE_LINE1":"1 47598U 21009BC  21183.58335648 -.00021405  00000-0 -14215-2 0  9991","TLE_LINE2":"2 47598  53.1139 132.7126 0001756  82.0703  91.2706 15.06423767  3670"},"version":"v1.0","launch":"5ff6554f9257f579ee3a6c5f","longitude":-160.242890754774,"latitude":-34.8869410546791,"height_km":559.0036299136682,"velocity_kms":7.581399505060907,"id":"6026ca85056ffc00066f5968"},{"spaceTrack":{"CCSDS_OMM_VERS":"2.0","COMMENT":"GENERATED VIA SPACE-TRACK.ORG API","CREATION_DATE":"2021-07-02T17:51:43","ORIGINATOR":"18 SPCS","OBJECT_NAME":"STARLINK-2023","OBJECT_ID":"2021-009BK","CENTER_NAME":"EARTH","REF_FRAME":"TEME","TIME_SYSTEM":"UTC","MEAN_ELEMENT_THEORY":"SGP4","EPOCH":"2021-07-02T14:00:01.999872","MEAN_MOTION":15.0641635,"ECCENTRICITY":0.0001818,"INCLINATION":53.0349,"RA_OF_ASC_NODE":133.1588,"ARG_OF_PERICENTER":77.4211,"MEAN_ANOMALY":355.9852,"EPHEMERIS_TYPE":0,"CLASSIFICATION_TYPE":"U","NORAD_CAT_ID":47605,"ELEMENT_SET_NO":999,"REV_AT_EPOCH":365,"BSTAR":-0.0012029,"MEAN_MOTION_DOT":-0.00018162,"MEAN_MOTION_DDOT":0,"SEMIMAJOR_AXIS":6925.298,"PERIOD":95.591,"APOAPSIS":548.422,"PERIAPSIS":545.904,"OBJECT_TYPE":"PAYLOAD","RCS_SIZE":"LARGE","COUNTRY_CODE":"US","LAUNCH_DATE":"2021-02-04","SITE":"AFETR","DECAY_DATE":null,"DECAYED":0,"FILE":3068555,"GP_ID":180167133,"TLE_LINE0":"0 STARLINK-2023","TLE_LINE1":"1 47605U 21009BK  21183.58335648 -.00018162  00000-0 -12029-2 0  9997","TLE_LINE2":"2 47605  53.0349 133.1588 0001818  77.4211 355.9852 15.06416350  3659"},"version":"v1.0","launch":"5ff6554f9257f579ee3a6c5f","longitude":74.27658215332994,"latitude":-27.2919832047123,"height_km":556.1964764749582,"velocity_kms":7.582969194069677,"id":"6026ca85056ffc00066f5969"},{"spaceTrack":{"CCSDS_OMM_VERS":"2.0","COMMENT":"GENERATED VIA SPACE-TRACK.ORG API","CREATION_DATE":"2021-07-02T17:51:43","ORIGINATOR":"18 SPCS","OBJECT_NAME":"STARLINK-2006","OBJECT_ID":"2021-009BF","CENTER_NAME":"EARTH","REF_FRAME":"TEME","TIME_SYSTEM":"UTC","MEAN_ELEMENT_THEORY":"SGP4","EPOCH":"2021-07-02T14:00:01.999872","MEAN_MOTION":15.06396072,"ECCENTRICITY":0.0001469,"INCLINATION":53.0508,"RA_OF_ASC_NODE":123.0637,"ARG_OF_PERICENTER":67.0422,"MEAN_ANOMALY":141.3042,"EPHEMERIS_TYPE":0,"CLASSIFICATION_TYPE":"U","NORAD_CAT_ID":47601,"ELEMENT_SET_NO":999,"REV_AT_EPOCH":370,"BSTAR":-0.00014318,"MEAN_MOTION_DOT":-0.00002413,"MEAN_MOTION_DDOT":0,"SEMIMAJOR_AXIS":6925.361,"PERIOD":95.592,"APOAPSIS":548.243,"PERIAPSIS":546.208,"OBJECT_TYPE":"PAYLOAD","RCS_SIZE":"LARGE","COUNTRY_CODE":"US","LAUNCH_DATE":"2021-02-04","SITE":"AFETR","DECAY_DATE":null,"DECAYED":0,"FILE":3068555,"GP_ID":180167632,"TLE_LINE0":"0 STARLINK-2006","TLE_LINE1":"1 47601U 21009BF  21183.58335648 -.00002413  00000-0 -14318-3 0  9999","TLE_LINE2":"2 47601  53.0508 123.0637 0001469  67.0422 141.3042 15.06396072  3708"},"version":"v1.0","launch":"5ff6554f9257f579ee3a6c5f","longitude":-144.87106141927023,"latitude":-8.392065042902244,"height_km":549.3693281519836,"velocity_kms":7.588019164439727,"id":"6026ca85056ffc00066f596c"},{"spaceTrack":{"CCSDS_OMM_VERS":"2.0","COMMENT":"GENERATED VIA SPACE-TRACK.ORG API","CREATION_DATE":"2021-07-02T17:51:43","ORIGINATOR":"18 SPCS","OBJECT_NAME":"STARLINK-1940","OBJECT_ID":"2021-009E","CENTER_NAME":"EARTH","REF_FRAME":"TEME","TIME_SYSTEM":"UTC","MEAN_ELEMENT_THEORY":"SGP4","EPOCH":"2021-07-02T16:00:00.999936","MEAN_MOTION":15.06374259,"ECCENTRICITY":0.0001881,"INCLINATION":53.0547,"RA_OF_ASC_NODE":132.6869,"ARG_OF_PERICENTER":68.0341,"MEAN_ANOMALY":277.6111,"EPHEMERIS_TYPE":0,"CLASSIFICATION_TYPE":"U","NORAD_CAT_ID":47552,"ELEMENT_SET_NO":999,"REV_AT_EPOCH":360,"BSTAR":0.0019203,"MEAN_MOTION_DOT":0.00028417,"MEAN_MOTION_DDOT":0,"SEMIMAJOR_AXIS":6925.427,"PERIOD":95.594,"APOAPSIS":548.595,"PERIAPSIS":545.99,"OBJECT_TYPE":"PAYLOAD","RCS_SIZE":"LARGE","COUNTRY_CODE":"US","LAUNCH_DATE":"2021-02-04","SITE":"AFETR","DECAY_DATE":null,"DECAYED":0,"FILE":3068555,"GP_ID":180168378,"TLE_LINE0":"0 STARLINK-1940","TLE_LINE1":"1 47552U 21009E   21183.66667824  .00028417  00000-0  19203-2 0  9994","TLE_LINE2":"2 47552  53.0547 132.6869 0001881  68.0341 277.6111 15.06374259  3600"},"version":"v1.0","launch":"5ff6554f9257f579ee3a6c5f","longitude":-105.94362854692515,"latitude":27.18441605802919,"height_km":547.4311258445823,"velocity_kms":7.592577920329964,"id":"6026ca85056ffc00066f5970"},{"spaceTrack":{"CCSDS_OMM_VERS":"2.0","COMMENT":"GENERATED VIA SPACE-TRACK.ORG API","CREATION_DATE":"2021-07-02T17:51:43","ORIGINATOR":"18 SPCS","OBJECT_NAME":"STARLINK-2007","OBJECT_ID":"2021-009BG","CENTER_NAME":"EARTH","REF_FRAME":"TEME","TIME_SYSTEM":"UTC","MEAN_ELEMENT_THEORY":"SGP4","EPOCH":"2021-07-02T14:00:01.999872","MEAN_MOTION":15.06421354,"ECCENTRICITY":0.0001968,"INCLINATION":53.0462,"RA_OF_ASC_NODE":133.119,"ARG_OF_PERICENTER":71.8249,"MEAN_ANOMALY":21.5971,"EPHEMERIS_TYPE":0,"CLASSIFICATION_TYPE":"U","NORAD_CAT_ID":47602,"ELEMENT_SET_NO":999,"REV_AT_EPOCH":365,"BSTAR":-0.0011328,"MEAN_MOTION_DOT":-0.00017125,"MEAN_MOTION_DDOT":0,"SEMIMAJOR_AXIS":6925.283,"PERIOD":95.591,"APOAPSIS":548.511,"PERIAPSIS":545.785,"OBJECT_TYPE":"PAYLOAD","RCS_SIZE":"LARGE","COUNTRY_CODE":"US","LAUNCH_DATE":"2021-02-04","SITE":"AFETR","DECAY_DATE":null,"DECAYED":0,"FILE":3068555,"GP_ID":180167882,"TLE_LINE0":"0 STARLINK-2007","TLE_LINE1":"1 47602U 21009BG  21183.58335648 -.00017125  00000-0 -11328-2 0  9993","TLE_LINE2":"2 47602  53.0462 133.1190 0001968  71.8249  21.5971 15.06421354  3654"},"version":"v1.0","launch":"5ff6554f9257f579ee3a6c5f","longitude":91.9956922220538,"latitude":-40.945333402738136,"height_km":562.0159486575831,"velocity_kms":7.579425904046782,"id":"6026ca85056ffc00066f5971"},{"spaceTrack":{"CCSDS_OMM_VERS":"2.0","COMMENT":"GENERATED VIA SPACE-TRACK.ORG API","CREATION_DATE":"2021-07-02T17:51:43","ORIGINATOR":"18 SPCS","OBJECT_NAME":"STARLINK-2002","OBJECT_ID":"2021-009BB","CENTER_NAME":"EARTH","REF_FRAME":"TEME","TIME_SYSTEM":"UTC","MEAN_ELEMENT_THEORY":"SGP4","EPOCH":"2021-07-02T11:23:54.097152","MEAN_MOTION":15.06384556,"ECCENTRICITY":0.0000664,"INCLINATION":53.0547,"RA_OF_ASC_NODE":163.5553,"ARG_OF_PERICENTER":65.5001,"MEAN_ANOMALY":294.6057,"EPHEMERIS_TYPE":0,"CLASSIFICATION_TYPE":"U","NORAD_CAT_ID":47597,"ELEMENT_SET_NO":999,"REV_AT_EPOCH":2259,"BSTAR":0.000058838,"MEAN_MOTION_DOT":0.00000595,"MEAN_MOTION_DDOT":0,"SEMIMAJOR_AXIS":6925.396,"PERIOD":95.593,"APOAPSIS":547.721,"PERIAPSIS":546.801,"OBJECT_TYPE":"PAYLOAD","RCS_SIZE":"LARGE","COUNTRY_CODE":"US","LAUNCH_DATE":"2021-02-04","SITE":"AFETR","DECAY_DATE":null,"DECAYED":0,"FILE":3068555,"GP_ID":180167132,"TLE_LINE0":"0 STARLINK-2002","TLE_LINE1":"1 47597U 21009BB  21183.47493168  .00000595  00000-0  58838-4 0  9996","TLE_LINE2":"2 47597  53.0547 163.5553 0000664  65.5001 294.6057 15.06384556 22593"},"version":"v1.0","launch":"5ff6554f9257f579ee3a6c5f","longitude":-92.71817509168378,"latitude":7.71059000249737,"height_km":547.2155737195262,"velocity_kms":7.590352794754914,"id":"6026ca85056ffc00066f5972"}]